LEMUR-1                 
1 40044U 14033AL  26195.98206389  .00000783  00000+0  95604-4 0  9996
2 40044  97.7909 345.1759 0047801 348.6547  11.3586 14.85336489649594
LEMUR-2-GREENBERG       
1 42837U 17042N   26196.04691669  .00009990  00000+0  32403-3 0  9994
2 42837  97.3827  16.5610 0007195 260.7721  99.2707 15.32149662492657
LEMUR-2-ANDIS           
1 42838U 17042P   26196.01009198  .00012411  00000+0  35686-3 0  9990
2 42838  97.3676  16.8088 0007198 258.4412 101.6024 15.35919403492725
LEMUR-2-MONSON          
1 42839U 17042Q   26195.98579237  .00007873  00000+0  28429-3 0  9995
2 42839  97.4087  16.4294 0005287 246.4562 113.6122 15.28749052492419
LEMUR-2-FURIAUS         
1 42840U 17042R   26196.05974699  .00009911  00000+0  33189-3 0  9991
2 42840  97.3772  14.4663 0006026 330.2641  29.8256 15.31128008492479
LEMUR-2-PETERG          
1 42841U 17042S   26196.01085881  .00011275  00000+0  33401-3 0  9997
2 42841  97.3988  21.1098 0003278 220.8339 139.2659 15.35024382492703
LEMUR-2-DEMBITZ         
1 42842U 17042T   26196.01413279  .00009054  00000+0  30371-3 0  9999
2 42842  97.3823  17.4650 0005062 275.8916  84.1748 15.31106592492604
LEMUR-2-ZACHARY         
1 42845U 17042W   26196.18112145  .00029645  00000+0  48083-3 0  9995
2 42845  97.3567  28.4612 0002514 245.5131 114.5860 15.52713433493542
LEMUR-2-AMANDA-SVANTE   
1 48269U 21034B   26196.19019207  .00019638  00000+0  56242-3 0  9990
2 48269  97.5753 275.2472 0004594 143.0554 217.1007 15.35959572285352
LEMUR-2-SPECIAL-K       
1 48273U 21034F   26196.20642278  .00180994  00000+0  12117-2 0  9993
2 48273  97.5637 285.3000 0006361 214.5066 145.5786 15.74724524286082
LEMUR-2-EMBRIONOVIS     
1 56970U 23084AQ  26195.91977308  .00007943  00000+0  21306-3 0  9998
2 56970  97.6312 341.2012 0008298 206.9114 153.1701 15.38225270171945
LEMUR-2-DEVERILL-M-T    
1 57391U 23100F   26196.10098507  .00015384  00000+0  37445-3 0  9991
2 57391  99.4454 242.9511 0004680 297.4251  62.6512 15.41090109165547
LEMUR-2-BASS            
1 58259U 23174D   26196.15094962  .00010095  00000+0  22325-3 0  9997
2 58259  97.3850 281.2709 0007671  78.4477 281.7632 15.43993692149677
LEMUR-2-JK0903EM1407    
1 58336U 23174CJ  26196.18336698  .00017007  00000+0  27342-3 0  9995
2 58336  97.3926 287.4707 0003617  33.6015 326.5466 15.53068651150078
LEMUR-2-MJR092620       
1 58340U 23174CN  26196.19592301  .00011299  00000+0  23445-3 0  9993
2 58340  97.3980 286.7599 0005292  30.7058 329.4500 15.45863269149977
LEMUR-2-NIMBUS2000      
1 58899U 24022A   26196.13865322  .00013180  00000+0  31994-3 0  9994
2 58899  97.4076  46.5090 0008760  29.0828 331.0905 15.41114955136577
LEMUR-2-VALHALLA        
1 58900U 24022B   26196.14348855  .00009181  00000+0  22826-3 0  9995
2 58900  97.4076  46.4839 0009214  24.3908 335.7773 15.40486977136571
LEMUR-2-CAEL            
1 58903U 24022E   26196.12913868  .00010508  00000+0  24954-3 0  9997
2 58903  97.4057  47.4555 0007125   9.8241 350.3144 15.41854430136643
LEMUR-2-JOHNNYTRUONG    
1 59146U 24043BA  26195.96173650  .00027955  00000+0  31450-3 0  9991
2 59146  97.5391 349.4319 0004101  94.5290 265.6437 15.62548407132370
LEMUR-2-TOMATOKECHUP    
1 60471U 24149D   26196.17962130  .00006176  00000+0  17522-3 0  9990
2 60471  97.3800 278.3072 0003289 122.7219 237.4342 15.36582532106464
LEMUR-2-STELLA          
1 60533U 24149BT  26196.13990325  .00005285  00000+0  30849-3 0  9999
2 60533  97.6739 278.7272 0001262 117.9259 242.2099 15.12370018104720
LEMUR-2-MARHISYAM       
1 60536U 24149BW  26196.06460422  .00005575  00000+0  33056-3 0  9999
2 60536  97.6883 279.1278 0002498  69.0130 291.1366 15.11775917104693
LEMUR-2-AHMED-ASRAR     
1 60576U 24149DN  26195.80675463  .00005930  00000+0  33684-3 0  9999
2 60576  97.7008 281.0702 0001134 205.8662 154.2512 15.13301229104748
LEMUR-2-LLOYD           
1 60577U 24149DP  26196.14862723  .00005016  00000+0  31480-3 0  9992
2 60577  97.6750 277.3011 0004803  72.7044 287.4710 15.09750750104611
LEMUR-2-SQUIRRELCOMM    
1 60578U 24149DQ  26196.13716545  .00002363  00000+0  16013-3 0  9999
2 60578  97.6712 276.9648 0004080 328.3749  31.7233 15.07446412104615
LEMUR-2-SIERRINI        
1 60579U 24149DR  26196.15967207  .00005945  00000+0  35465-3 0  9996
2 60579  97.6849 278.8848 0006477  91.0767 269.1205 15.11512778104683
LEMUR-2-WILSON          
1 62694U 25009CP  26196.13492510  .00000674  00000+0  66337-4 0  9997
2 62694  97.7021 274.1097 0002024 325.2513  34.8575 14.95276365 81531
LEMUR-2-STAR-FOX        
1 62696U 25009CR  26196.19343779  .00003389  00000+0  25750-3 0  9996
2 62696  97.6910 277.6011 0002231  42.2446 317.8950 15.02840720 81761
LEMUR-2-ARIANNA         
1 62699U 25009CU  26196.19190453  .00003648  00000+0  27680-3 0  9990
2 62699  97.6852 277.3518 0002560  48.8550 311.2895 15.02842721 81760
LEMUR-2-ALISIA          
1 62706U 25009DB  26196.16427264  .00004406  00000+0  33038-3 0  9996
2 62706  97.6973 278.1493 0004296 129.2590 230.9017 15.03175424104365
